[{"OBJECT_NAME":"STARLINK-2667","OBJECT_ID":"2021-044AB","EPOCH":"2026-03-09T09:24:45.588384","MEAN_MOTION":15.30194564,"ECCENTRICITY":0.00013415,"INCLINATION":53.1586,"RA_OF_ASC_NODE":105.209,"ARG_OF_PERICENTER":84.4457,"MEAN_ANOMALY":275.6697,"EPHEMERIS_TYPE":0,"CLASSIFICATION_TYPE":"U","NORAD_CAT_ID":48663,"ELEMENT_SET_NO":999,"REV_AT_EPOCH":26392,"BSTAR":-1.6986694e-5,"MEAN_MOTION_DOT":-8.62e-6,"MEAN_MOTION_DDOT":0},{"OBJECT_NAME":"FENGYUN 1C DEB","OBJECT_ID":"1999-025EGV","EPOCH":"2026-02-28T16:17:34.017216","MEAN_MOTION":14.9983724,"ECCENTRICITY":0.01801634,"INCLINATION":98.631,"RA_OF_ASC_NODE":214.8944,"ARG_OF_PERICENTER":42.5154,"MEAN_ANOMALY":318.9857,"EPHEMERIS_TYPE":0,"CLASSIFICATION_TYPE":"U","NORAD_CAT_ID":37427,"ELEMENT_SET_NO":999,"REV_AT_EPOCH":61490,"BSTAR":0.00040638516,"MEAN_MOTION_DOT":7.014e-5,"MEAN_MOTION_DDOT":0}]
